[{"OBJECT_NAME":"STARLINK-1222","OBJECT_ID":"2020-012BC","EPOCH":"2026-03-09T22:38:25.073664","MEAN_MOTION":15.49506736,"ECCENTRICITY":0.00039794,"INCLINATION":53.0573,"RA_OF_ASC_NODE":341.5954,"ARG_OF_PERICENTER":86.864,"MEAN_ANOMALY":273.2823,"EPHEMERIS_TYPE":0,"CLASSIFICATION_TYPE":"U","NORAD_CAT_ID":45228,"ELEMENT_SET_NO":999,"REV_AT_EPOCH":33566,"BSTAR":0.00049812662,"MEAN_MOTION_DOT":0.00027553,"MEAN_MOTION_DDOT":0},{"OBJECT_NAME":"STARLINK-1480","OBJECT_ID":"2020-038M","EPOCH":"2026-03-09T17:32:00.403008","MEAN_MOTION":15.47630667,"ECCENTRICITY":0.00068768,"INCLINATION":53.0516,"RA_OF_ASC_NODE":217.0565,"ARG_OF_PERICENTER":179.8885,"MEAN_ANOMALY":180.2125,"EPHEMERIS_TYPE":0,"CLASSIFICATION_TYPE":"U","NORAD_CAT_ID":45741,"ELEMENT_SET_NO":999,"REV_AT_EPOCH":31648,"BSTAR":0.00053203068,"MEAN_MOTION_DOT":0.00027583,"MEAN_MOTION_DDOT":0}]
